# From MPEC 2022-S20
C/1995 O1 (Hale-Bopp),e,89.6355,281.9529,130.4335,179.9837,0.0004082,0.99491911,0.0000,03/30.4105/1997,2000,g -2.0,4.0
# From NK 1615
P/1996 R2 (Lagerkvist),e,2.5990,40.0364,333.5145,3.771344,0.1345736,0.31403172,346.4400,03/07.0/2026,2000,g 11.5,4.0
# From MPC 73460
C/1997 BA6 (Spacewatch),e,72.6957,317.7994,286.0586,2912,0.0000063,0.99881187,0.0000,11/16.5399/1999,2000,g 10.0,2.0
# From MPC 75703
P/1998 VS24 (LINEAR),e,5.0303,159.0320,244.9447,4.519285,0.1025887,0.24339748,303.5519,03/07.0/2026,2000,g 13.0,2.0
# From MPC 73461
C/1999 F1 (Catalina),e,91.8845,19.9667,255.3261,20105,0.0000003,0.99971087,0.0000,01/31.0255/2002,2000,g  9.5,2.0
# From MPC186628
C/1999 J2 (Skiff),h,04/09.8432/2000,86.4000,50.2550,126.9579,1.000767,7.068469,2000,2.0,4.0
# From NK 731
P/1999 RO28 (LONEOS),e,7.5674,137.8380,231.3669,3.426011,0.1554250,0.67224973,19.8456,03/07.0/2026,2000,g 20.0,2.0
# From MPC 43758
C/1999 S2 (McNaught-Watson),h,11/06.1302/1997,65.6400,74.4447,223.4663,1.002238,6.502651,2000,2.0,4.0
# From MPC 75704
P/1999 XN120 (Catalina),e,5.0294,285.2395,161.4398,4.192632,0.1148085,0.21338008,8.7574,03/07.0/2026,2000,g 13.5,2.0
# From NK 744
P/2000 R2 (LINEAR),e,11.6794,160.2685,176.5815,3.468031,0.1526088,0.53050266,14.4528,03/07.0/2026,2000,g 18.0,4.0
# From MPC 43019
P/2001 H5 (NEAT),e,8.3728,328.6856,224.5829,6.092946,0.0655334,0.59978274,249.2990,03/07.0/2026,2000,g 12.0,4.0
# From MPC 46619
C/2001 M10 (NEAT),e,27.9926,293.9632,5.5968,26.71498,0.0071379,0.79925181,64.5556,03/07.0/2026,2000,g  8.0,4.0
# From MPEC 2015-N31
C/2002 A1 (LINEAR),e,14.0777,81.0441,18.7285,16.04203,0.0153396,0.70974220,135.9345,03/07.0/2026,2000,g 12.5,2.0
# From MPC 89006
C/2002 A2 (LINEAR),e,14.0318,81.0107,19.1238,15.89697,0.0155501,0.70741553,137.6895,03/07.0/2026,2000,g 11.0,2.0
# From MPC 45962
C/2002 B1 (LINEAR),e,51.0305,58.2560,76.0980,9.873572,0.0317682,0.77058177,277.5834,03/07.0/2026,2000,g 11.5,4.0
# From MPC188408
C/2002 CE10 (LINEAR),e,145.3697,147.5670,126.2490,9.765376,0.0322976,0.78953673,267.6499,03/07.0/2026,2000,g 13.0,2.0
# From MPEC 2023-UR6
P/2002 EJ57 (LINEAR),e,4.9915,330.2180,167.3031,6.454353,0.0601070,0.59422171,169.2121,03/07.0/2026,2000,g 12.5,4.0
# From MPEC 2015-N31
C/2002 L9 (NEAT),h,04/01.7785/2004,68.2196,110.4978,231.5808,1.000387,7.074103,2000,8.5,2.0
# From MPC 75007
C/2002 VQ94 (LINEAR),e,70.6106,35.0405,99.8187,187.6791,0.0003833,0.96403203,2.8086,03/07.0/2026,2000,g  9.5,2.0
# From MPC186628
C/2003 A2 (Gleason),e,8.0714,154.4486,346.5715,9084,0.0000011,0.99874889,0.0000,11/09.2529/2003,2000,g  3.5,4.0
# From MPC 51182
C/2003 E1 (NEAT),e,33.4698,137.1283,103.9114,13.77187,0.0192848,0.76215093,155.8719,03/07.0/2026,2000,g 12.5,2.0
# From MPC 50354
P/2003 F2 (NEAT),e,11.5674,358.9664,193.1159,6.556318,0.0587103,0.53579212,135.5909,03/07.0/2026,2000,g 16.5,2.0
# From unp
P/2003 L1 (Scotti),e,9.0480,225.8048,355.0755,6.693865,0.0569100,0.25196108,117.4969,03/07.0/2026,2000,g  9.5,4.0
# From MPC105235
P/2003 T12 (SOHO),e,11.0199,174.5675,219.8072,2.584298,0.2372412,0.77000740,145.0389,03/07.0/2026,2000,g 17.0,4.0
# From MPC 57131
C/2004 B1 (LINEAR),h,02/07.8229/2006,113.9169,273.3288,328.1043,1.000938,1.600222,2000,10.5,2.0
# From MPC 51368
C/2004 C1 (Larsen),e,28.8625,151.9549,315.9683,11.62433,0.0248686,0.62580256,359.9917,03/19.0/2003,2000,g 13.5,2.0
# From MPEC 2022-YN2
P/2004 FY140 (LINEAR),e,2.1628,327.2622,254.3404,4.968380,0.0889983,0.19291981,328.6121,03/07.0/2026,2000,g 12.5,2.0
# From MPC 53304
P/2004 R3 (LINEAR-NEAT),e,12.8058,305.1248,36.9919,4.743328,0.0954068,0.25509218,155.9426,03/07.0/2026,2000,g 14.5,4.0
# From MPC 53465
C/2004 T3 (Siding Spring),e,71.7869,50.3563,259.8440,31489,0.0000002,0.99971713,0.0000,04/03.8001/2003,2000,g  2.5,4.0
# From MPC 75705
P/2004 V5 (LINEAR-Hill),e,19.3280,47.7322,87.1404,8.058135,0.0430876,0.44980086,337.7510,03/07.0/2026,2000,g  8.0,4.0
# From unp
P/2004 V5-A (LINEAR-Hill),e,19.3314,47.7592,87.1053,8.058977,0.0430808,0.44988540,337.7649,03/07.0/2026,2000,g  8.0,4.0
# From MPC 75705
P/2004 V5-B (LINEAR-Hill),e,19.3282,47.7326,87.1449,8.058321,0.0430861,0.44981401,337.7097,03/07.0/2026,2000,g  8.0,4.0
# From MPC 54164
P/2005 E1 (Tubbiolo),e,4.2607,335.4816,193.9805,7.074487,0.0523795,0.37763723,46.6392,03/07.0/2026,2000,g 10.0,4.0
# From MPC 74246
P/2005 L1 (McNaught),e,10.5363,123.5482,168.5185,3.818649,0.1320807,0.28917095,187.0029,03/07.0/2026,2000,g  9.5,4.0
# From MPC 87062
C/2005 L3 (McNaught),e,139.3130,288.7781,46.9601,3778,0.0000042,0.99852422,0.0000,01/13.7236/2008,2000,g  4.0,4.0
# From MPC 75706
P/2005 S2 (Skiff),e,3.1396,161.3253,230.0870,7.980514,0.0437178,0.19812482,313.7733,03/07.0/2026,2000,g  7.5,4.0
# From MPC 73461
P/2005 T3 (Read),e,6.2339,27.6184,7.1933,7.565865,0.0473605,0.17348396,352.0741,03/07.0/2026,2000,g  9.0,4.0
# From MPC 75707
P/2006 HR30 (Siding Spring),e,31.9677,309.7438,117.5309,7.793050,0.0453047,0.84350344,317.0728,03/07.0/2026,2000,g 11.0,4.0
# From MPEC 2022-L66
C/2006 S3 (LONEOS),h,04/16.2357/2012,166.0456,38.5225,140.1155,1.000587,5.117113,2000,2.0,4.0
# From MPC 84315
C/2007 D1 (LINEAR),e,41.5194,170.9728,339.8309,1325,0.0000204,0.99340198,0.0000,06/16.5845/2007,2000,g  3.5,4.0
# From MPEC 2024-GJ3
P/2007 K2 (Gibbs),e,7.5865,188.2745,347.0311,7.407472,0.0488876,0.68712965,344.1116,03/07.0/2026,2000,g 14.0,4.0
# From MPC 73462
P/2007 S1 (Zhao),e,5.9624,141.3197,245.2850,3.819430,0.1320402,0.33759282,164.7958,03/07.0/2026,2000,g 13.0,4.0
# From MPEC 2024-GJ3
C/2007 S2 (Lemmon),e,16.9216,296.1354,210.1532,12.49177,0.0223238,0.55753305,142.5886,03/07.0/2026,2000,g  6.5,4.0
# From MPEC 2024-GJ3
C/2008 E1 (Catalina),e,34.8636,188.8675,270.4386,10.76375,0.0279099,0.55292397,178.6822,03/07.0/2026,2000,g  7.0,4.0
# From MPC 95207
C/2008 S3 (Boattini),h,06/09.6005/2011,162.7405,55.0261,40.1968,1.001912,8.054760,2000,4.0,4.0
# From MPC 75710
P/2008 Y3 (McNaught),e,38.7809,262.8233,238.2094,8.032971,0.0432902,0.44871266,271.7546,03/07.0/2026,2000,g  8.5,4.0
# From MPC 75710
P/2009 B1 (Boattini),e,22.2597,297.1088,129.0303,6.721244,0.0565626,0.63578475,353.4664,03/07.0/2026,2000,g 13.0,4.0
# From MPC 95208
C/2009 F4 (McNaught),e,79.2122,53.5098,260.5027,19860,0.0000004,0.99972416,0.0000,12/25.1980/2011,2000,g  3.0,4.0
# From MPC103843
C/2009 P1 (Garradd),e,106.2189,325.8330,90.4540,9913,0.0000010,0.99984468,0.0000,12/23.9758/2011,2000,g  4.0,4.0
# From MPC 68902
P/2009 Q5 (McNaught),e,40.9469,160.1779,209.1971,7.427719,0.0486879,0.60904590,292.6840,03/07.0/2026,2000,g 10.0,4.0
# From MPC105235
P/2009 WX51 (Catalina),e,9.5980,31.5208,118.2923,3.083165,0.1820577,0.73977026,352.8904,03/07.0/2026,2000,g 19.0,2.0
# From MPC 74247
P/2009 Y2 (Kowalski),e,29.9725,262.0763,172.2830,6.533547,0.0590175,0.63726146,344.0755,03/07.0/2026,2000,g 13.0,4.0
# From MPC 75008
P/2010 C1 (Scotti),e,9.1159,141.5820,2.8702,7.134555,0.0517194,0.26462251,311.9747,03/07.0/2026,2000,g  9.5,4.0
# From MPC 75008
P/2010 D2 (WISE),e,57.1403,319.8806,120.0697,6.712163,0.0566774,0.45149463,332.2384,03/07.0/2026,2000,g 16.0,4.0
# From MPC 72851
P/2010 H2 (Vales),e,14.2777,64.1891,128.0823,3.835534,0.1312095,0.19802529,47.5176,03/07.0/2026,2000,g  6.0,4.0
# From MPC 70361
P/2010 H3 (SOHO),e,23.1385,77.1648,26.0920,3.034343,0.1864692,0.98558051,0.0000,05/25.2492/2026,2000,g 20.0,2.0
# From MPEC 2024-GJ3
P/2010 H4 (Scotti),e,2.3177,44.7499,179.0836,6.620559,0.0578578,0.26749100,334.5115,03/07.0/2026,2000,g 10.5,4.0
# From MPC 74637
P/2010 H5 (Scotti),e,14.0539,24.3333,175.5872,7.166995,0.0513687,0.15683878,299.5728,03/07.0/2026,2000,g 13.0,2.0
# From MPC 84315
P/2010 JC81 (WISE),e,38.7320,30.8279,12.5268,8.103293,0.0427279,0.77779343,231.5309,03/07.0/2026,2000,g  9.0,4.0
# From MPC 83518
C/2010 L3 (Catalina),e,102.6383,38.3133,121.7431,33198,0.0000002,0.99970280,0.0000,11/12.5064/2010,2000,g  4.5,4.0
# From MPC115879
C/2010 S1 (LINEAR),h,05/20.6798/2013,125.4388,93.6689,118.7042,1.000684,5.906251,2000,3.5,4.0
# From MPC 74248
P/2010 T2 (PANSTARRS),e,7.8519,57.6659,349.7728,5.564302,0.0750910,0.32424132,56.0284,03/07.0/2026,2000,g 11.5,4.0
# From MPEC 2023-J95
C/2010 U3 (Boattini),h,03/01.0168/2019,55.5237,42.9951,88.1175,1.000326,8.441518,2000,1.0,4.0
# From MPC 79021
P/2010 UH55 (Spacewatch),e,8.0382,232.7881,225.3910,6.644543,0.0575448,0.56464478,312.9016,03/07.0/2026,2000,g 11.0,4.0
# From MPC 84021
P/2011 C2 (Gibbs),e,10.8991,11.9695,160.3343,7.405275,0.0489094,0.27184744,254.4201,03/07.0/2026,2000,g  9.0,4.0
# From MPC 89309
C/2011 F1 (LINEAR),e,56.3909,85.1939,192.5954,3546,0.0000047,0.99948201,0.0000,01/01.5345/2013,2000,g  5.0,4.0
# From MPC 79866
P/2011 FR143 (Lemmon),e,15.9608,190.8411,349.5986,6.887556,0.0545263,0.45307071,302.1324,03/07.0/2026,2000,g 14.0,2.0
# From MPC106343
C/2011 J2 (LINEAR),h,12/20.6594/2013,122.8023,164.0635,85.4865,1.000336,3.459831,2000,5.5,3.6
# From MPC 82317
P/2011 JB15 (Spacewatch-Boattini),e,19.1287,153.5813,110.5901,7.382958,0.0491313,0.31536059,255.2027,03/07.0/2026,2000,g  9.0,4.0
# From MPEC 2023-J95
C/2011 KP36 (Spacewatch),e,18.9541,173.4122,180.9625,39.36565,0.0039905,0.87485741,14.2603,03/07.0/2026,2000,g  4.5,4.0
# From MPC 87913
P/2011 N1 (ASH),e,35.7819,77.6234,330.5266,6.230770,0.0633711,0.54528516,317.9114,03/07.0/2026,2000,g 11.5,4.0
# From MPEC 2022-ED3
P/2011 P1 (McNaught),e,5.6498,4.2394,349.1229,7.464639,0.0483271,0.32595398,275.3833,03/07.0/2026,2000,g  9.0,4.0
# From MPC107047
C/2011 P2 (PANSTARRS),e,8.9827,203.9329,76.1843,9.765870,0.0322952,0.36527361,183.6514,03/07.0/2026,2000,g  8.5,4.0
# From MPEC 2022-HC2
P/2011 S1 (Gibbs),e,2.6873,218.8976,193.0524,8.601764,0.0390681,0.20032005,164.6025,03/07.0/2026,2000,g  8.0,4.0
# From MPEC 2023-UR6
P/2011 V1 (Boattini),e,7.3822,46.4898,269.5899,3.858217,0.1300541,0.54837869,353.8198,03/07.0/2026,2000,g 15.5,4.0
# From MPC 82718
P/2011 W1 (PANSTARRS),e,3.7157,161.7890,283.1203,4.676015,0.0974743,0.28823739,144.8819,03/07.0/2026,2000,g 11.5,4.0
# From MPC 79342
